{"type":"FeatureCollection","features":[{"type":"Feature","properties":{"candidate_type":"inward_transfer","physical_sensor_id":"5832","sensor_ident":"Z28CT101","sensor_name":"Centre Saint Aubin vers Lycée","sensor_type":"4G","temporal_status":"active_clean","n_raw_hours":6147,"n_clean_hours":3953,"current_zone_id":"181014000","current_commune":"SAINT-AUBIN-DE-M?DOC","current_zone_status":"exterior","candidate_zone_id":"180005000","candidate_commune":"EYSINES","candidate_zone_status":"boundary","distance_m":4141.159,"distance_to_candidate_zone_m":4141.159,"distance_to_rocade_boundary_m":6939.019,"screening_distance_m":4141.159,"candidate_rank":1,"n_candidate_zones_for_sensor":1,"is_ambiguous":false,"current_temporal_quality":"partial","current_has_raw_hourly_series":true,"current_is_observed_clean":false,"candidate_has_raw_hourly_series":true,"candidate_is_observed_clean":false,"candidate_is_lozo_target":false,"candidate_n_active_temporal_sensors":2,"potential_new_coverage":true},"geometry":{"type":"Point","coordinates":[-0.7151157999999994,44.90623080000001]}},{"type":"Feature","properties":{"candidate_type":"inward_transfer","physical_sensor_id":"5833","sensor_ident":"Z28CT102","sensor_name":"Lycée vers Centre Saint Aubin","sensor_type":"4G","temporal_status":"active_clean","n_raw_hours":6147,"n_clean_hours":3953,"current_zone_id":"181014000","current_commune":"SAINT-AUBIN-DE-M?DOC","current_zone_status":"exterior","candidate_zone_id":"180005000","candidate_commune":"EYSINES","candidate_zone_status":"boundary","distance_m":4139.085,"distance_to_candidate_zone_m":4139.085,"distance_to_rocade_boundary_m":6937.129,"screening_distance_m":4139.085,"candidate_rank":1,"n_candidate_zones_for_sensor":1,"is_ambiguous":false,"current_temporal_quality":"partial","current_has_raw_hourly_series":true,"current_is_observed_clean":false,"candidate_has_raw_hourly_series":true,"candidate_is_observed_clean":false,"candidate_is_lozo_target":false,"candidate_n_active_temporal_sensors":2,"potential_new_coverage":true},"geometry":{"type":"Point","coordinates":[-0.7150909999999989,44.9062243]}},{"type":"Feature","properties":{"candidate_type":"inward_transfer","physical_sensor_id":"5843","sensor_ident":"Z7CT105","sensor_name":"Martignas vers Bordeaux","sensor_type":"4G","temporal_status":"active_clean","n_raw_hours":15301,"n_clean_hours":15301,"current_zone_id":"179006000","current_commune":"MARTIGNAS-SUR-JALLE","current_zone_status":"exterior","candidate_zone_id":"179003000","candidate_commune":"MERIGNAC","candidate_zone_status":"boundary","distance_m":4643.908,"distance_to_candidate_zone_m":4643.908,"distance_to_rocade_boundary_m":7595.869,"screening_distance_m":4643.908,"candidate_rank":1,"n_candidate_zones_for_sensor":1,"is_ambiguous":false,"current_temporal_quality":"usable_with_gaps","current_has_raw_hourly_series":true,"current_is_observed_clean":false,"candidate_has_raw_hourly_series":true,"candidate_is_observed_clean":true,"candidate_is_lozo_target":true,"candidate_n_active_temporal_sensors":2,"potential_new_coverage":false},"geometry":{"type":"Point","coordinates":[-0.7689261000000003,44.84218799999999]}},{"type":"Feature","properties":{"candidate_type":"inward_transfer","physical_sensor_id":"5844","sensor_ident":"Z7CT106","sensor_name":"Bordeaux vers Martignas","sensor_type":"4G","temporal_status":"active_clean","n_raw_hours":15301,"n_clean_hours":15301,"current_zone_id":"179006000","current_commune":"MARTIGNAS-SUR-JALLE","current_zone_status":"exterior","candidate_zone_id":"179003000","candidate_commune":"MERIGNAC","candidate_zone_status":"boundary","distance_m":4645.217,"distance_to_candidate_zone_m":4645.217,"distance_to_rocade_boundary_m":7595.654,"screening_distance_m":4645.217,"candidate_rank":1,"n_candidate_zones_for_sensor":1,"is_ambiguous":false,"current_temporal_quality":"usable_with_gaps","current_has_raw_hourly_series":true,"current_is_observed_clean":false,"candidate_has_raw_hourly_series":true,"candidate_is_observed_clean":true,"candidate_is_lozo_target":true,"candidate_n_active_temporal_sensors":2,"potential_new_coverage":false},"geometry":{"type":"Point","coordinates":[-0.7689204999999998,44.84220950000001]}},{"type":"Feature","properties":{"candidate_type":"inward_transfer","physical_sensor_id":"5845","sensor_ident":"Z7CT107","sensor_name":"Martignas vers Bordeaux","sensor_type":"4G","temporal_status":"active_clean","n_raw_hours":14696,"n_clean_hours":14696,"current_zone_id":"179006000","current_commune":"MARTIGNAS-SUR-JALLE","current_zone_status":"exterior","candidate_zone_id":"179003000","candidate_commune":"MERIGNAC","candidate_zone_status":"boundary","distance_m":4646.383,"distance_to_candidate_zone_m":4646.383,"distance_to_rocade_boundary_m":7588.34,"screening_distance_m":4646.383,"candidate_rank":1,"n_candidate_zones_for_sensor":1,"is_ambiguous":false,"current_temporal_quality":"usable_with_gaps","current_has_raw_hourly_series":true,"current_is_observed_clean":false,"candidate_has_raw_hourly_series":true,"candidate_is_observed_clean":true,"candidate_is_lozo_target":true,"candidate_n_active_temporal_sensors":2,"potential_new_coverage":false},"geometry":{"type":"Point","coordinates":[-0.7688145999999991,44.842305100000004]}},{"type":"Feature","properties":{"candidate_type":"inward_transfer","physical_sensor_id":"5846","sensor_ident":"Z7CT108","sensor_name":"Bordeaux vers Martignas","sensor_type":"4G","temporal_status":"active_clean","n_raw_hours":14696,"n_clean_hours":14696,"current_zone_id":"179006000","current_commune":"MARTIGNAS-SUR-JALLE","current_zone_status":"exterior","candidate_zone_id":"179003000","candidate_commune":"MERIGNAC","candidate_zone_status":"boundary","distance_m":4647.303,"distance_to_candidate_zone_m":4647.303,"distance_to_rocade_boundary_m":7588.187,"screening_distance_m":4647.303,"candidate_rank":1,"n_candidate_zones_for_sensor":1,"is_ambiguous":false,"current_temporal_quality":"usable_with_gaps","current_has_raw_hourly_series":true,"current_is_observed_clean":false,"candidate_has_raw_hourly_series":true,"candidate_is_observed_clean":true,"candidate_is_lozo_target":true,"candidate_n_active_temporal_sensors":2,"potential_new_coverage":false},"geometry":{"type":"Point","coordinates":[-0.7688106,44.8423202]}}]}
