{
  "features": [
    {
      "geometry": {
        "coordinates": [
          [
            [
              [
                -0.5776826811016036,
                44.845541392737076
              ],
              [
                -0.5768007482759061,
                44.845172294285256
              ],
              [
                -0.5751847341946396,
                44.845335748897526
              ],
              [
                -0.5747397507803697,
                44.84480133592515
              ],
              [
                -0.5739569244055639,
                44.8446080663341
              ],
              [
                -0.5736616439237009,
                44.842912073011334
              ],
              [
                -0.5739461838336054,
                44.84290313847358
              ],
              [
                -0.5738061896044824,
                44.84227173665106
              ],
              [
                -0.5800714901699274,
                44.84170632648707
              ],
              [
                -0.578176442726821,
                44.84490659160784
              ],
              [
                -0.577612461118229,
                44.845002240217845
              ],
              [
                -0.577795985561167,
                44.84535778583129
              ],
              [
                -0.5776826811016036,
                44.845541392737076
              ]
            ]
          ]
        ],
        "type": "MultiPolygon"
      },
      "properties": {
        "accessibility_level": 2,
        "commune": "BORDEAUX",
        "n_test_labels": 2616,
        "n_validation_labels": 2618,
        "test_bias": 4.718532802392632,
        "test_mae": 8.72115344458339,
        "test_r2": 0.918443074478047,
        "test_rmse": 13.245145874080166,
        "validation_mae": 9.334267085143209,
        "validation_r2": 0.8830266617512043,
        "validation_rmse": 15.565272456979692,
        "zone_id": "161008000"
      },
      "type": "Feature"
    },
    {
      "geometry": {
        "coordinates": [
          [
            [
              [
                -0.5659351637522455,
                44.81676913322919
              ],
              [
                -0.5646637278208044,
                44.813453748742894
              ],
              [
                -0.5645716185980055,
                44.813328468706054
              ],
              [
                -0.5645548760701555,
                44.81309526642758
              ],
              [
                -0.5649200067092155,
                44.81293968467025
              ],
              [
                -0.5650707346525113,
                44.81268173361106
              ],
              [
                -0.5655957054572929,
                44.8126261231299
              ],
              [
                -0.5679373563152988,
                44.81244995245812
              ],
              [
                -0.5704388194856193,
                44.81144831762088
              ],
              [
                -0.5738514109395707,
                44.810917502084976
              ],
              [
                -0.5738601986754772,
                44.81141594380532
              ],
              [
                -0.5736357162488279,
                44.81236368341893
              ],
              [
                -0.5726097408029212,
                44.81476612035305
              ],
              [
                -0.572249450689531,
                44.81658562903348
              ],
              [
                -0.5676151725135277,
                44.81632659164531
              ],
              [
                -0.56762459005158,
                44.81655438061532
              ],
              [
                -0.5659351637522455,
                44.81676913322919
              ]
            ]
          ]
        ],
        "type": "MultiPolygon"
      },
      "properties": {
        "accessibility_level": 3,
        "commune": "BORDEAUX",
        "n_test_labels": 2616,
        "n_validation_labels": 2617,
        "test_bias": -20.226023814858817,
        "test_mae": 20.562361684184957,
        "test_r2": 0.2786449203585857,
        "test_rmse": 38.972590495662764,
        "validation_mae": 21.11085243802909,
        "validation_r2": 0.2251362671126479,
        "validation_rmse": 39.45479935480698,
        "zone_id": "162005000"
      },
      "type": "Feature"
    },
    {
      "geometry": {
        "coordinates": [
          [
            [
              [
                -0.590682626218586,
                44.838229643772635
              ],
              [
                -0.5891948098667448,
                44.83592013364411
              ],
              [
                -0.5877433016964827,
                44.83211600132585
              ],
              [
                -0.5949129324567085,
                44.82896458812448
              ],
              [
                -0.5985401995911249,
                44.83131637941071
              ],
              [
                -0.5989596322186446,
                44.83661480186104
              ],
              [
                -0.5952822379245033,
                44.83694678483525
              ],
              [
                -0.5920841479494423,
                44.83794093407477
              ],
              [
                -0.590682626218586,
                44.838229643772635
              ]
            ]
          ]
        ],
        "type": "MultiPolygon"
      },
      "properties": {
        "accessibility_level": 3,
        "commune": "BORDEAUX",
        "n_test_labels": 2554,
        "n_validation_labels": 1525,
        "test_bias": 14.590965425903365,
        "test_mae": 18.17028965882979,
        "test_r2": 0.2368641446461407,
        "test_rmse": 28.270225749954747,
        "validation_mae": 19.623313329999156,
        "validation_r2": -0.3215490636511977,
        "validation_rmse": 31.05239503298592,
        "zone_id": "162015000"
      },
      "type": "Feature"
    },
    {
      "geometry": {
        "coordinates": [
          [
            [
              [
                -0.5778484060604158,
                44.8509906942601
              ],
              [
                -0.5787743605751877,
                44.85078691995928
              ],
              [
                -0.5751340911679484,
                44.84964972831853
              ],
              [
                -0.57675436697719,
                44.84702350780958
              ],
              [
                -0.5777859043775865,
                44.84716692626621
              ],
              [
                -0.5800221679688001,
                44.847864462578045
              ],
              [
                -0.5800596579425372,
                44.84823540782317
              ],
              [
                -0.5804899264916721,
                44.848227008793245
              ],
              [
                -0.5813920347242048,
                44.84761202108222
              ],
              [
                -0.5835551581660238,
                44.84904820421486
              ],
              [
                -0.586232624569511,
                44.85016664426978
              ],
              [
                -0.585820243913689,
                44.850275482092954
              ],
              [
                -0.5847565955320957,
                44.85097864697357
              ],
              [
                -0.5834844911247147,
                44.85058081664119
              ],
              [
                -0.5800734454413249,
                44.8531188911363
              ],
              [
                -0.5781834773362199,
                44.85157568637845
              ],
              [
                -0.5778484060604158,
                44.8509906942601
              ]
            ]
          ]
        ],
        "type": "MultiPolygon"
      },
      "properties": {
        "accessibility_level": 2,
        "commune": "BORDEAUX",
        "n_test_labels": 2616,
        "n_validation_labels": 2617,
        "test_bias": -8.576843136758956,
        "test_mae": 10.837327282714954,
        "test_r2": 0.8979933527664732,
        "test_rmse": 16.17724177937256,
        "validation_mae": 11.759356657465434,
        "validation_r2": 0.8723788190214394,
        "validation_rmse": 19.318332817481885,
        "zone_id": "163012000"
      },
      "type": "Feature"
    },
    {
      "geometry": {
        "coordinates": [
          [
            [
              [
                -0.5469754998804016,
                44.84141514794063
              ],
              [
                -0.5434208896370608,
                44.84241558324058
              ],
              [
                -0.5429413878090251,
                44.84244618430009
              ],
              [
                -0.5418081870614272,
                44.84197232638095
              ],
              [
                -0.5477747790932115,
                44.83582260367934
              ],
              [
                -0.5342423211733113,
                44.82825538255872
              ],
              [
                -0.5333253194176666,
                44.82787274074313
              ],
              [
                -0.5365365612449877,
                44.82611570530135
              ],
              [
                -0.5345611999250126,
                44.82434920203373
              ],
              [
                -0.5374943139295688,
                44.822885781907594
              ],
              [
                -0.5441725671033828,
                44.8278564364206
              ],
              [
                -0.5573212840313403,
                44.83428301906238
              ],
              [
                -0.5630701063622442,
                44.838310905658794
              ],
              [
                -0.5548819978298012,
                44.84336821668529
              ],
              [
                -0.5515403615615541,
                44.84064719035083
              ],
              [
                -0.5482963058462963,
                44.84102861299382
              ],
              [
                -0.5469754998804016,
                44.84141514794063
              ]
            ]
          ],
          [
            [
              [
                -0.5417797775473049,
                44.841963301746546
              ],
              [
                -0.5416465049918157,
                44.842100045429824
              ],
              [
                -0.541645296556001,
                44.84210098382467
              ],
              [
                -0.5417797775473049,
                44.841963301746546
              ]
            ]
          ]
        ],
        "type": "MultiPolygon"
      },
      "properties": {
        "accessibility_level": 1,
        "commune": "BORDEAUX",
        "n_test_labels": 2616,
        "n_validation_labels": 2617,
        "test_bias": 2.7352169125433843,
        "test_mae": 10.211998391662632,
        "test_r2": 0.7647966769154804,
        "test_rmse": 17.305840954419594,
        "validation_mae": 7.832497519928096,
        "validation_r2": 0.8035468188109302,
        "validation_rmse": 13.977323861295604,
        "zone_id": "166001000"
      },
      "type": "Feature"
    },
    {
      "geometry": {
        "coordinates": [
          [
            [
              [
                -0.5678129417245465,
                44.84591094475861
              ],
              [
                -0.5673500527633545,
                44.84853499044644
              ],
              [
                -0.5662523032585188,
                44.85019975117876
              ],
              [
                -0.5650602353702184,
                44.85153857021071
              ],
              [
                -0.5629995088803722,
                44.85302689534783
              ],
              [
                -0.5606713786451827,
                44.85439499972489
              ],
              [
                -0.5526572859491296,
                44.85775762954812
              ],
              [
                -0.5488141039417777,
                44.85968043104616
              ],
              [
                -0.5472695735503059,
                44.86064458038587
              ],
              [
                -0.5447434075900431,
                44.86282066036594
              ],
              [
                -0.5441048117812136,
                44.86356387468472
              ],
              [
                -0.5428811626319066,
                44.86551991773739
              ],
              [
                -0.5411762281535105,
                44.868845878693456
              ],
              [
                -0.5367025911162663,
                44.868225192526815
              ],
              [
                -0.5366709746880852,
                44.86736187045248
              ],
              [
                -0.5373814936811994,
                44.86397671310413
              ],
              [
                -0.537356042847618,
                44.86323039128794
              ],
              [
                -0.5377161023192727,
                44.86259072520616
              ],
              [
                -0.5390030884733977,
                44.85759918760791
              ],
              [
                -0.5397903150826708,
                44.856197857735026
              ],
              [
                -0.5407979488613041,
                44.85491748786046
              ],
              [
                -0.5421465464869373,
                44.85390024883252
              ],
              [
                -0.5435216024060725,
                44.853204741883616
              ],
              [
                -0.5430696367599981,
                44.853009195730245
              ],
              [
                -0.5512598465337267,
                44.847906719083255
              ],
              [
                -0.5495365507506986,
                44.846658642561955
              ],
              [
                -0.5630701063622442,
                44.838310905658794
              ],
              [
                -0.5663103008556296,
                44.84072391870533
              ],
              [
                -0.5674725359549587,
                44.84308660511634
              ],
              [
                -0.5677564916626081,
                44.844126510423365
              ],
              [
                -0.5678129417245465,
                44.84591094475861
              ]
            ]
          ]
        ],
        "type": "MultiPolygon"
      },
      "properties": {
        "accessibility_level": 1,
        "commune": "BORDEAUX",
        "n_test_labels": 2505,
        "n_validation_labels": 2408,
        "test_bias": -10.18974118614452,
        "test_mae": 12.962262737587729,
        "test_r2": 0.705891420378663,
        "test_rmse": 20.75263111140727,
        "validation_mae": 9.53264722624908,
        "validation_r2": 0.7636896236454661,
        "validation_rmse": 15.45723965736566,
        "zone_id": "166002000"
      },
      "type": "Feature"
    },
    {
      "geometry": {
        "coordinates": [
          [
            [
              [
                -0.6037635371590413,
                44.79580456121119
              ],
              [
                -0.6001884406861454,
                44.79810867027635
              ],
              [
                -0.598035049528289,
                44.79684789261923
              ],
              [
                -0.5966881011326589,
                44.79646990574012
              ],
              [
                -0.5923258489639737,
                44.79622655883887
              ],
              [
                -0.5924020468680807,
                44.79526063342325
              ],
              [
                -0.5915512473826697,
                44.79278088233593
              ],
              [
                -0.5913677407300127,
                44.79046436107827
              ],
              [
                -0.5908893571558729,
                44.78931542802136
              ],
              [
                -0.5907986614742713,
                44.7870850662593
              ],
              [
                -0.5918036301390351,
                44.78696873750093
              ],
              [
                -0.5933097038991936,
                44.787027989483605
              ],
              [
                -0.5952829520750417,
                44.78679544742428
              ],
              [
                -0.5959936213086932,
                44.78688503642176
              ],
              [
                -0.5979446953834179,
                44.78766981990279
              ],
              [
                -0.5988187219504155,
                44.78819571694668
              ],
              [
                -0.6006802740316023,
                44.78947811306099
              ],
              [
                -0.6019731104977655,
                44.790711295897125
              ],
              [
                -0.6021768126251387,
                44.79077051337613
              ],
              [
                -0.6025386191562436,
                44.79039196444137
              ],
              [
                -0.6046284847663559,
                44.79051589926477
              ],
              [
                -0.6052796864443576,
                44.79042625079048
              ],
              [
                -0.6052606330704497,
                44.79248970839043
              ],
              [
                -0.6050057498815874,
                44.79388227114862
              ],
              [
                -0.6046669324898618,
                44.79486234477617
              ],
              [
                -0.6037635371590413,
                44.79580456121119
              ]
            ]
          ]
        ],
        "type": "MultiPolygon"
      },
      "properties": {
        "accessibility_level": 3,
        "commune": "TALENCE",
        "n_test_labels": 2616,
        "n_validation_labels": 2617,
        "test_bias": -12.142972918831108,
        "test_mae": 12.27221945552611,
        "test_r2": -0.0470526924003005,
        "test_rmse": 18.06830542198536,
        "validation_mae": 10.583375726021146,
        "validation_r2": 0.0423713033553068,
        "validation_rmse": 16.05318109441645,
        "zone_id": "168013000"
      },
      "type": "Feature"
    },
    {
      "geometry": {
        "coordinates": [
          [
            [
              [
                -0.6260725558112941,
                44.826124238067436
              ],
              [
                -0.6281387107770356,
                44.82575008129179
              ],
              [
                -0.6281253712791205,
                44.82511451099786
              ],
              [
                -0.6291674346558896,
                44.821540581940866
              ],
              [
                -0.6292778312206037,
                44.82054034957518
              ],
              [
                -0.6289245244474747,
                44.81916571713704
              ],
              [
                -0.6298537625717192,
                44.81782610882584
              ],
              [
                -0.6334583636570147,
                44.81767306934664
              ],
              [
                -0.6337127848070356,
                44.81726625767963
              ],
              [
                -0.6342225488965357,
                44.81702121671666
              ],
              [
                -0.6350857470646014,
                44.82087000588665
              ],
              [
                -0.6381580927055454,
                44.8272846084092
              ],
              [
                -0.6396464405772111,
                44.829594420319246
              ],
              [
                -0.6371980979759011,
                44.829435066631774
              ],
              [
                -0.6345751495601379,
                44.83008163320235
              ],
              [
                -0.6334871101116019,
                44.830551756846106
              ],
              [
                -0.6301919795104449,
                44.82969528607373
              ],
              [
                -0.628361290411613,
                44.829061204277
              ],
              [
                -0.627608491585117,
                44.82895512616493
              ],
              [
                -0.626269520099858,
                44.82906924228922
              ],
              [
                -0.6260725558112941,
                44.826124238067436
              ]
            ]
          ]
        ],
        "type": "MultiPolygon"
      },
      "properties": {
        "accessibility_level": 3,
        "commune": "MERIGNAC",
        "n_test_labels": 2616,
        "n_validation_labels": 2617,
        "test_bias": -6.91414586352811,
        "test_mae": 7.238273666107839,
        "test_r2": 0.4891737666679963,
        "test_rmse": 12.281222413856478,
        "validation_mae": 6.22556671717645,
        "validation_r2": 0.4955464027180427,
        "validation_rmse": 10.690681818103686,
        "zone_id": "170005000"
      },
      "type": "Feature"
    },
    {
      "geometry": {
        "coordinates": [
          [
            [
              [
                -0.5972075970389926,
                44.868560391370146
              ],
              [
                -0.5967524955852829,
                44.86760990462254
              ],
              [
                -0.5949858408424921,
                44.86553292767456
              ],
              [
                -0.5946349115236157,
                44.86371382216279
              ],
              [
                -0.5934951116612706,
                44.86293510547582
              ],
              [
                -0.5931160229618673,
                44.862279566401966
              ],
              [
                -0.5942878870744004,
                44.862391211743365
              ],
              [
                -0.5956847611159357,
                44.86221972936099
              ],
              [
                -0.5997489663814439,
                44.86056297462411
              ],
              [
                -0.6017814979679825,
                44.861922885148125
              ],
              [
                -0.6007561695655362,
                44.86265191989172
              ],
              [
                -0.6011633817046913,
                44.86388334058273
              ],
              [
                -0.6010971477885652,
                44.86526089426693
              ],
              [
                -0.6000103782677358,
                44.865289856181434
              ],
              [
                -0.6006850288167529,
                44.86584928005388
              ],
              [
                -0.6013283549175235,
                44.8660392748039
              ],
              [
                -0.6022381935462694,
                44.86700472662848
              ],
              [
                -0.6004404625236073,
                44.86794456779249
              ],
              [
                -0.60134263181081,
                44.86851372965129
              ],
              [
                -0.6020361629233582,
                44.86918785440543
              ],
              [
                -0.60234323096068,
                44.86925272798827
              ],
              [
                -0.6030117021355509,
                44.87038642685581
              ],
              [
                -0.5992175088437811,
                44.87021761648499
              ],
              [
                -0.5982754588980986,
                44.87056717888807
              ],
              [
                -0.5976026290717179,
                44.869818421241504
              ],
              [
                -0.5972075970389926,
                44.868560391370146
              ]
            ]
          ]
        ],
        "type": "MultiPolygon"
      },
      "properties": {
        "accessibility_level": 1,
        "commune": "BOUSCAT (LE )",
        "n_test_labels": 2493,
        "n_validation_labels": 2384,
        "test_bias": -2.527806755384678,
        "test_mae": 5.0151954070349305,
        "test_r2": 0.6425349096170216,
        "test_rmse": 9.885825094065106,
        "validation_mae": 4.58165115251184,
        "validation_r2": 0.6636606381262515,
        "validation_rmse": 8.783794012609336,
        "zone_id": "173007000"
      },
      "type": "Feature"
    },
    {
      "geometry": {
        "coordinates": [
          [
            [
              [
                -0.5972075970389926,
                44.868560391370146
              ],
              [
                -0.5954511969991767,
                44.86864261958578
              ],
              [
                -0.5942180285727314,
                44.86852300837679
              ],
              [
                -0.5937082715018321,
                44.86990491156573
              ],
              [
                -0.59310498029696,
                44.87087439793696
              ],
              [
                -0.5924140274042452,
                44.87061379356216
              ],
              [
                -0.5924805689558191,
                44.870405227951956
              ],
              [
                -0.5903382671071882,
                44.87008346451459
              ],
              [
                -0.589688279674749,
                44.87024592493245
              ],
              [
                -0.5890852416202101,
                44.87009062689912
              ],
              [
                -0.5867665316226128,
                44.87006198610453
              ],
              [
                -0.5859214032572293,
                44.86958901460386
              ],
              [
                -0.5843203118014686,
                44.86922622356939
              ],
              [
                -0.5833673933435412,
                44.869188474712
              ],
              [
                -0.5828857946819888,
                44.869408653385904
              ],
              [
                -0.5817932133404242,
                44.86934745078324
              ],
              [
                -0.5816792148895802,
                44.868594087874456
              ],
              [
                -0.580878103460203,
                44.8682738244426
              ],
              [
                -0.5840921212487756,
                44.86803487997315
              ],
              [
                -0.5840148083909144,
                44.867281174371634
              ],
              [
                -0.5882765986189902,
                44.86697948789375
              ],
              [
                -0.5881428778761342,
                44.86585804816453
              ],
              [
                -0.5877030341022258,
                44.86472679715912
              ],
              [
                -0.5867709417721343,
                44.8631310108683
              ],
              [
                -0.5872241161217211,
                44.86209161046131
              ],
              [
                -0.5881956059239531,
                44.86228286708427
              ],
              [
                -0.5881842309585437,
                44.862561756567274
              ],
              [
                -0.591698148838488,
                44.86245969672344
              ],
              [
                -0.5931160229618673,
                44.862279566401966
              ],
              [
                -0.5934951116612706,
                44.86293510547582
              ],
              [
                -0.5946349115236157,
                44.86371382216279
              ],
              [
                -0.5949858408424921,
                44.86553292767456
              ],
              [
                -0.5967524955852829,
                44.86760990462254
              ],
              [
                -0.5972075970389926,
                44.868560391370146
              ]
            ]
          ]
        ],
        "type": "MultiPolygon"
      },
      "properties": {
        "accessibility_level": 1,
        "commune": "BOUSCAT (LE )",
        "n_test_labels": 2493,
        "n_validation_labels": 2408,
        "test_bias": -0.6607362735371121,
        "test_mae": 4.134795011103275,
        "test_r2": 0.7213082647580792,
        "test_rmse": 6.534901155194065,
        "validation_mae": 3.885763149504112,
        "validation_r2": 0.6937736366696017,
        "validation_rmse": 6.14217384546962,
        "zone_id": "173009000"
      },
      "type": "Feature"
    },
    {
      "geometry": {
        "coordinates": [
          [
            [
              [
                -0.6172006480683079,
                44.87347321632162
              ],
              [
                -0.6154245360694698,
                44.87675222676634
              ],
              [
                -0.6149575924109626,
                44.87727763660428
              ],
              [
                -0.6149416938218342,
                44.87941147035895
              ],
              [
                -0.6140650822098009,
                44.88002942079244
              ],
              [
                -0.6136511936048565,
                44.88057106654085
              ],
              [
                -0.6127558253940937,
                44.87944299775322
              ],
              [
                -0.6120091815514495,
                44.8804082191008
              ],
              [
                -0.6118805539291643,
                44.88087027599449
              ],
              [
                -0.611010575877275,
                44.88066968513388
              ],
              [
                -0.609079077659565,
                44.880557681779706
              ],
              [
                -0.6055308443965213,
                44.8792939779505
              ],
              [
                -0.6038963235392174,
                44.877824863126456
              ],
              [
                -0.6022115135424212,
                44.87539470485019
              ],
              [
                -0.6010408492402806,
                44.874535056341585
              ],
              [
                -0.6025062415625768,
                44.873905248718515
              ],
              [
                -0.6038076064425609,
                44.87301126766654
              ],
              [
                -0.6050935493824597,
                44.872409804096264
              ],
              [
                -0.6119887928957329,
                44.87140776360064
              ],
              [
                -0.6136033047756108,
                44.87104971927948
              ],
              [
                -0.6172006480683079,
                44.87347321632162
              ]
            ]
          ]
        ],
        "type": "MultiPolygon"
      },
      "properties": {
        "accessibility_level": 2,
        "commune": "BRUGES",
        "n_test_labels": 2503,
        "n_validation_labels": 2408,
        "test_bias": 5.381335233859185,
        "test_mae": 5.610271200108019,
        "test_r2": -6.523384992422736,
        "test_rmse": 10.027874239064182,
        "validation_mae": 4.865173998032001,
        "validation_r2": -6.361632381924241,
        "validation_rmse": 8.398025568700946,
        "zone_id": "173011000"
      },
      "type": "Feature"
    },
    {
      "geometry": {
        "coordinates": [
          [
            [
              [
                -0.5171420442603643,
                44.887929648488374
              ],
              [
                -0.5163625001716184,
                44.889860507000414
              ],
              [
                -0.5162862600494741,
                44.89077396592711
              ],
              [
                -0.5161099124235266,
                44.89291243915972
              ],
              [
                -0.5168499511006059,
                44.89485858814235
              ],
              [
                -0.5161151823887518,
                44.8970926649452
              ],
              [
                -0.5141667631593007,
                44.896656007242456
              ],
              [
                -0.5139603459935063,
                44.89603165418211
              ],
              [
                -0.5135379823096806,
                44.8957268890552
              ],
              [
                -0.5121320255732634,
                44.89546677224422
              ],
              [
                -0.5087031745617834,
                44.8955003671828
              ],
              [
                -0.5086938725289596,
                44.895087921358005
              ],
              [
                -0.5091683731129532,
                44.89493053429146
              ],
              [
                -0.509137607266505,
                44.894581803373924
              ],
              [
                -0.5087097909150026,
                44.89441149403376
              ],
              [
                -0.5084599216475866,
                44.892969221744195
              ],
              [
                -0.5066168937475973,
                44.89307974444665
              ],
              [
                -0.5028698783705089,
                44.89161012411325
              ],
              [
                -0.5040177830666351,
                44.889771394434774
              ],
              [
                -0.5051438191506648,
                44.8885173814423
              ],
              [
                -0.5063903425388772,
                44.88789216654476
              ],
              [
                -0.508247026951152,
                44.886565542877456
              ],
              [
                -0.5088540264447949,
                44.88629850352715
              ],
              [
                -0.5104249060349763,
                44.886077603799215
              ],
              [
                -0.5120345572185871,
                44.88558687645369
              ],
              [
                -0.5123677235111537,
                44.886190028931644
              ],
              [
                -0.5128085233097008,
                44.88638703602358
              ],
              [
                -0.5127436223197774,
                44.886828884502386
              ],
              [
                -0.5152772956089934,
                44.88712355007741
              ],
              [
                -0.517352718130205,
                44.88710560072039
              ],
              [
                -0.5171420442603643,
                44.887929648488374
              ]
            ]
          ]
        ],
        "type": "MultiPolygon"
      },
      "properties": {
        "accessibility_level": 2,
        "commune": "CARBON-BLANC",
        "n_test_labels": 2616,
        "n_validation_labels": 2617,
        "test_bias": 1.1824298183051356,
        "test_mae": 1.7959227796742945,
        "test_r2": 0.1909838831491551,
        "test_rmse": 2.8489194383289984,
        "validation_mae": 1.9061801779931955,
        "validation_r2": -0.1630414217570532,
        "validation_rmse": 2.9861020281854334,
        "zone_id": "174005000"
      },
      "type": "Feature"
    },
    {
      "geometry": {
        "coordinates": [
          [
            [
              [
                -0.5266232705619392,
                44.864002310836675
              ],
              [
                -0.5274535932339883,
                44.86575414775629
              ],
              [
                -0.5281359903393119,
                44.86643540616062
              ],
              [
                -0.5282426231718403,
                44.866868729678586
              ],
              [
                -0.5276890084977636,
                44.867854056648895
              ],
              [
                -0.5259990706439116,
                44.869762651698736
              ],
              [
                -0.5256107384448409,
                44.86890893569017
              ],
              [
                -0.523941337861174,
                44.866683620233374
              ],
              [
                -0.5231894391621976,
                44.86808913383175
              ],
              [
                -0.5216400507688571,
                44.869452289640435
              ],
              [
                -0.5209909533370548,
                44.87037773422886
              ],
              [
                -0.5203000944509025,
                44.87221380024487
              ],
              [
                -0.5174455094226187,
                44.87162210353586
              ],
              [
                -0.5154505928874931,
                44.87095353788067
              ],
              [
                -0.5122985450291199,
                44.87016200895043
              ],
              [
                -0.5128117184868075,
                44.868096377633684
              ],
              [
                -0.5138926248499923,
                44.86793322509321
              ],
              [
                -0.5165250878525098,
                44.8689277552383
              ],
              [
                -0.516974503401555,
                44.86879902652953
              ],
              [
                -0.5181984774100133,
                44.868974700354244
              ],
              [
                -0.5185401901155579,
                44.86846195886916
              ],
              [
                -0.5206940340831065,
                44.866795692751815
              ],
              [
                -0.5211065345744973,
                44.86593728668024
              ],
              [
                -0.5224341540492078,
                44.864436961248664
              ],
              [
                -0.5227982612016434,
                44.86363499214404
              ],
              [
                -0.5266232705619392,
                44.864002310836675
              ]
            ]
          ]
        ],
        "type": "MultiPolygon"
      },
      "properties": {
        "accessibility_level": 2,
        "commune": "LORMONT",
        "n_test_labels": 2616,
        "n_validation_labels": 2617,
        "test_bias": 0.7739371148014496,
        "test_mae": 1.6894954422773178,
        "test_r2": 0.2468992404371939,
        "test_rmse": 2.635602377936133,
        "validation_mae": 1.4846710306785924,
        "validation_r2": 0.342060889901482,
        "validation_rmse": 2.2712896357459336,
        "zone_id": "174012000"
      },
      "type": "Feature"
    },
    {
      "geometry": {
        "coordinates": [
          [
            [
              [
                -0.5168888923099892,
                44.85301401980675
              ],
              [
                -0.5159936173056922,
                44.85627780783394
              ],
              [
                -0.5093099024363782,
                44.85621632185649
              ],
              [
                -0.5090392149937879,
                44.85612395905814
              ],
              [
                -0.5089155572991916,
                44.85578628711633
              ],
              [
                -0.5051535426305435,
                44.855723194795694
              ],
              [
                -0.5052308727139585,
                44.853918278477835
              ],
              [
                -0.5042997300121208,
                44.851016913814085
              ],
              [
                -0.5158647747089571,
                44.8525012240642
              ],
              [
                -0.5168888923099892,
                44.85301401980675
              ]
            ]
          ]
        ],
        "type": "MultiPolygon"
      },
      "properties": {
        "accessibility_level": 3,
        "commune": "CENON",
        "n_test_labels": 2616,
        "n_validation_labels": 2617,
        "test_bias": 0.8846399550825829,
        "test_mae": 1.4175896911266144,
        "test_r2": 0.0658900208016466,
        "test_rmse": 2.167430453323027,
        "validation_mae": 1.2576263225841111,
        "validation_r2": 0.0311678203445751,
        "validation_rmse": 1.936654079032636,
        "zone_id": "175004000"
      },
      "type": "Feature"
    },
    {
      "geometry": {
        "coordinates": [
          [
            [
              [
                -0.5767716413811287,
                44.7728134408117
              ],
              [
                -0.5760795500806416,
                44.774325524034815
              ],
              [
                -0.5746297935250093,
                44.775840439234855
              ],
              [
                -0.5740149138283474,
                44.77713460397771
              ],
              [
                -0.5737712618271492,
                44.77805812109606
              ],
              [
                -0.5748646609824467,
                44.779413430819105
              ],
              [
                -0.5746612652264889,
                44.77969673649952
              ],
              [
                -0.5715463135479497,
                44.779085154488676
              ],
              [
                -0.56845423241527,
                44.78102512944616
              ],
              [
                -0.565971712041073,
                44.782126160173554
              ],
              [
                -0.5658661425432513,
                44.781300456153645
              ],
              [
                -0.5661053367768918,
                44.78032305192561
              ],
              [
                -0.5660993796037393,
                44.77777628862737
              ],
              [
                -0.5653143472661465,
                44.77529440725756
              ],
              [
                -0.5645414394384964,
                44.77380159120349
              ],
              [
                -0.5634590413919317,
                44.76704477339331
              ],
              [
                -0.5602343833393653,
                44.76359132190562
              ],
              [
                -0.5657383494880068,
                44.76398746470755
              ],
              [
                -0.5658860805016274,
                44.76342567815077
              ],
              [
                -0.5707468921405633,
                44.761901943125444
              ],
              [
                -0.5705932153608493,
                44.76744947699872
              ],
              [
                -0.5790668290663843,
                44.76909829609666
              ],
              [
                -0.5767716413811287,
                44.7728134408117
              ]
            ]
          ]
        ],
        "type": "MultiPolygon"
      },
      "properties": {
        "accessibility_level": 3,
        "commune": "VILLENAVE-D'ORNON",
        "n_test_labels": 2503,
        "n_validation_labels": 1699,
        "test_bias": 14.641700586648618,
        "test_mae": 14.75604597938106,
        "test_r2": -17.400229904459806,
        "test_rmse": 21.42060572418243,
        "validation_mae": 12.68699349060418,
        "validation_r2": -18.29987928825335,
        "validation_rmse": 19.50238684955405,
        "zone_id": "176007000"
      },
      "type": "Feature"
    },
    {
      "geometry": {
        "coordinates": [
          [
            [
              [
                -0.6672041544837566,
                44.78101711268116
              ],
              [
                -0.6633124103095209,
                44.78219406136455
              ],
              [
                -0.6634874865220924,
                44.78452983976275
              ],
              [
                -0.6639033470186383,
                44.785201902046516
              ],
              [
                -0.6631623430505307,
                44.78623951348492
              ],
              [
                -0.6618383197009077,
                44.78677988646026
              ],
              [
                -0.6609748774250276,
                44.78764927111297
              ],
              [
                -0.6590476171281124,
                44.79012298772008
              ],
              [
                -0.6584172988054301,
                44.79157950182269
              ],
              [
                -0.6573408859323722,
                44.79091029110082
              ],
              [
                -0.6543926021233925,
                44.78652279845681
              ],
              [
                -0.6505851686133146,
                44.79046967012751
              ],
              [
                -0.6484678909086322,
                44.79201213578398
              ],
              [
                -0.6468272815768513,
                44.79040954390929
              ],
              [
                -0.6455132535358488,
                44.78954704773056
              ],
              [
                -0.6423432543326377,
                44.78834258816716
              ],
              [
                -0.640018288815796,
                44.78787374096441
              ],
              [
                -0.6369148525251649,
                44.787733244794666
              ],
              [
                -0.6204806698231632,
                44.789219539065385
              ],
              [
                -0.6229384436059872,
                44.787785495999046
              ],
              [
                -0.6286793294104378,
                44.784966841371855
              ],
              [
                -0.645020122266309,
                44.77831621276973
              ],
              [
                -0.6454350478088796,
                44.778295341272326
              ],
              [
                -0.6459065442937899,
                44.77857912303028
              ],
              [
                -0.6511102565131408,
                44.77759297406588
              ],
              [
                -0.6543839887706753,
                44.776874977867294
              ],
              [
                -0.662871576522931,
                44.77818974502835
              ],
              [
                -0.6645995420528371,
                44.777460277376306
              ],
              [
                -0.6662019874074367,
                44.77675991149766
              ],
              [
                -0.6678383684094442,
                44.7777643500094
              ],
              [
                -0.6691060861559164,
                44.77762482976096
              ],
              [
                -0.6697449411329379,
                44.777970882253044
              ],
              [
                -0.6703712216745403,
                44.77787035749234
              ],
              [
                -0.6772862185853943,
                44.77626027548664
              ],
              [
                -0.6822451565040327,
                44.778885058719474
              ],
              [
                -0.6816567035888987,
                44.779310228356785
              ],
              [
                -0.6786825856381222,
                44.77754603691631
              ],
              [
                -0.6744908044665161,
                44.77898569424619
              ],
              [
                -0.6721285868833793,
                44.779513803451216
              ],
              [
                -0.6672041544837566,
                44.78101711268116
              ]
            ]
          ]
        ],
        "type": "MultiPolygon"
      },
      "properties": {
        "accessibility_level": 3,
        "commune": "PESSAC",
        "n_test_labels": 1429,
        "n_validation_labels": 2389,
        "test_bias": -0.5632698142371858,
        "test_mae": 4.402476295592241,
        "test_r2": 0.1558141060096326,
        "test_rmse": 9.250748492767046,
        "validation_mae": 3.60121117502801,
        "validation_r2": 0.3145096673025848,
        "validation_rmse": 7.747549694636422,
        "zone_id": "178002000"
      },
      "type": "Feature"
    },
    {
      "geometry": {
        "coordinates": [
          [
            [
              [
                -0.6912994278104121,
                44.83369861077092
              ],
              [
                -0.6914192362437389,
                44.8340371436725
              ],
              [
                -0.6917934841969255,
                44.83416166403658
              ],
              [
                -0.6922432774271595,
                44.83406824464025
              ],
              [
                -0.692371323292868,
                44.83385761111602
              ],
              [
                -0.6939552683014002,
                44.83390484885594
              ],
              [
                -0.6949791144677274,
                44.83365990388401
              ],
              [
                -0.6918296373766262,
                44.84746385080369
              ],
              [
                -0.6876727237749576,
                44.84779409462368
              ],
              [
                -0.6830791274369572,
                44.84849658870383
              ],
              [
                -0.6806525923672045,
                44.84831932702335
              ],
              [
                -0.6779530228527153,
                44.84749312048665
              ],
              [
                -0.6766097012888374,
                44.84561246825721
              ],
              [
                -0.6726654359596678,
                44.8433799286402
              ],
              [
                -0.6753481119480462,
                44.83957945253968
              ],
              [
                -0.6761160027993499,
                44.83784067759387
              ],
              [
                -0.6765893321429852,
                44.836073756793084
              ],
              [
                -0.676698641000395,
                44.83325531066037
              ],
              [
                -0.6754348147445106,
                44.82755226192389
              ],
              [
                -0.6783622175460396,
                44.8269594849134
              ],
              [
                -0.6849334018453868,
                44.82453577426616
              ],
              [
                -0.6880082584173607,
                44.830493114119335
              ],
              [
                -0.6859121117837967,
                44.83101434941456
              ],
              [
                -0.6858393467469566,
                44.83223980964435
              ],
              [
                -0.6843736055627944,
                44.83229394437961
              ],
              [
                -0.6844343607951552,
                44.832757002808954
              ],
              [
                -0.6882332610653839,
                44.83270285068123
              ],
              [
                -0.6881836683509307,
                44.83331650585696
              ],
              [
                -0.6912994278104121,
                44.83369861077092
              ]
            ]
          ]
        ],
        "type": "MultiPolygon"
      },
      "properties": {
        "accessibility_level": 1,
        "commune": "MERIGNAC",
        "n_test_labels": 2409,
        "n_validation_labels": 2396,
        "test_bias": -2.3199679723486484,
        "test_mae": 4.750760100057101,
        "test_r2": 0.4151065209336527,
        "test_rmse": 9.493321993298329,
        "validation_mae": 3.2957190816277477,
        "validation_r2": 0.5666328654635044,
        "validation_rmse": 6.5835502221931,
        "zone_id": "179002000"
      },
      "type": "Feature"
    },
    {
      "geometry": {
        "coordinates": [
          [
            [
              [
                -0.7132056773335338,
                44.799782428922704
              ],
              [
                -0.7215978023744443,
                44.80204265835725
              ],
              [
                -0.7232801662372438,
                44.80205912320998
              ],
              [
                -0.7235560889794814,
                44.80177225620692
              ],
              [
                -0.7241854629811114,
                44.801736693393146
              ],
              [
                -0.7295893536716964,
                44.80161356890517
              ],
              [
                -0.7284886867340498,
                44.80389395355996
              ],
              [
                -0.7267078839627356,
                44.8092455752622
              ],
              [
                -0.7260257616929158,
                44.81362100734843
              ],
              [
                -0.7209015804172031,
                44.81289902618712
              ],
              [
                -0.7116531077116887,
                44.814433040511126
              ],
              [
                -0.7084452978278512,
                44.81567330876459
              ],
              [
                -0.7047165793336577,
                44.81664072581992
              ],
              [
                -0.7011396624296233,
                44.81783730492582
              ],
              [
                -0.6995931304687578,
                44.81858110171811
              ],
              [
                -0.6999181588569848,
                44.81905610152818
              ],
              [
                -0.6990268680271071,
                44.81938597683092
              ],
              [
                -0.6989604544890138,
                44.81964686671074
              ],
              [
                -0.6983945288425226,
                44.819879403192985
              ],
              [
                -0.6963793829499673,
                44.82047019373946
              ],
              [
                -0.6962132672105784,
                44.820043173013964
              ],
              [
                -0.6888342409869593,
                44.82320734039323
              ],
              [
                -0.6788224286535226,
                44.82681172887045
              ],
              [
                -0.6754348147445106,
                44.82755226192389
              ],
              [
                -0.6722738854047703,
                44.81301267171827
              ],
              [
                -0.676496255264158,
                44.812987177769934
              ],
              [
                -0.6793161862364916,
                44.81275663813233
              ],
              [
                -0.6803637556547365,
                44.81249383997792
              ],
              [
                -0.6830729371003137,
                44.81136646487111
              ],
              [
                -0.6864828946253887,
                44.81034639701138
              ],
              [
                -0.7013771950114019,
                44.80243949037698
              ],
              [
                -0.7044830553818561,
                44.80023833255568
              ],
              [
                -0.7063845645689929,
                44.80127526774274
              ],
              [
                -0.7132056773335338,
                44.799782428922704
              ]
            ]
          ]
        ],
        "type": "MultiPolygon"
      },
      "properties": {
        "accessibility_level": 1,
        "commune": "MERIGNAC",
        "n_test_labels": 2461,
        "n_validation_labels": 2119,
        "test_bias": 2.1818534068752187,
        "test_mae": 4.656818007899659,
        "test_r2": -0.05489865624408,
        "test_rmse": 9.15460918410472,
        "validation_mae": 3.318688580455916,
        "validation_r2": 0.2072915986632045,
        "validation_rmse": 6.532021400816197,
        "zone_id": "179003000"
      },
      "type": "Feature"
    },
    {
      "geometry": {
        "coordinates": [
          [
            [
              [
                -0.6388702875546101,
                44.89507008627412
              ],
              [
                -0.6378305607654018,
                44.895539476731656
              ],
              [
                -0.6365438256327784,
                44.896815509739106
              ],
              [
                -0.6348365577301583,
                44.8975726437901
              ],
              [
                -0.6335197395913886,
                44.897797789750925
              ],
              [
                -0.6297586599170846,
                44.89805244973584
              ],
              [
                -0.6266355193887337,
                44.89146588844901
              ],
              [
                -0.6264062519736916,
                44.88929327581479
              ],
              [
                -0.6249233136581384,
                44.889045187312114
              ],
              [
                -0.6266424343110133,
                44.8864167102937
              ],
              [
                -0.6260131039494401,
                44.88617235390859
              ],
              [
                -0.6267439200181942,
                44.88539680447009
              ],
              [
                -0.6270720519185664,
                44.88541401103397
              ],
              [
                -0.627737616704104,
                44.88455044945175
              ],
              [
                -0.6281573093185615,
                44.883630036349885
              ],
              [
                -0.6280671901265986,
                44.88266856971081
              ],
              [
                -0.6291679813785794,
                44.881478004288745
              ],
              [
                -0.6313372664644359,
                44.88296990766305
              ],
              [
                -0.6382048055802675,
                44.885691328887845
              ],
              [
                -0.6393742689019762,
                44.8853086773472
              ],
              [
                -0.6409814145151231,
                44.88528307653384
              ],
              [
                -0.640144128642518,
                44.883360072289314
              ],
              [
                -0.6402131230847509,
                44.88178410824864
              ],
              [
                -0.6412574495847296,
                44.87859716793598
              ],
              [
                -0.6424171186157502,
                44.877071000212915
              ],
              [
                -0.6475357427180772,
                44.87974201936149
              ],
              [
                -0.647421263140471,
                44.88045689824505
              ],
              [
                -0.6482385754738602,
                44.882225461624024
              ],
              [
                -0.6478611391115329,
                44.88322568151127
              ],
              [
                -0.649272665379656,
                44.883583048274204
              ],
              [
                -0.6513944028024641,
                44.884453361080084
              ],
              [
                -0.6501314593710912,
                44.88684548503227
              ],
              [
                -0.6483014711611179,
                44.888866051687366
              ],
              [
                -0.6485701803563224,
                44.88939074107053
              ],
              [
                -0.6468305632709421,
                44.88907746754366
              ],
              [
                -0.6420459867273617,
                44.887190430746394
              ],
              [
                -0.6422564160682939,
                44.88781446695931
              ],
              [
                -0.6412588307128195,
                44.88904771579282
              ],
              [
                -0.6410645954196663,
                44.88994367922658
              ],
              [
                -0.6376580393746903,
                44.88990838674955
              ],
              [
                -0.6388702875546101,
                44.89507008627412
              ]
            ]
          ]
        ],
        "type": "MultiPolygon"
      },
      "properties": {
        "accessibility_level": 2,
        "commune": "EYSINES",
        "n_test_labels": 2205,
        "n_validation_labels": 2408,
        "test_bias": -1.5841889033448835,
        "test_mae": 2.5816973161851973,
        "test_r2": 0.5272012154506042,
        "test_rmse": 4.465490235180468,
        "validation_mae": 1.599464474306765,
        "validation_r2": 0.673394490643376,
        "validation_rmse": 2.7795908561534985,
        "zone_id": "180007000"
      },
      "type": "Feature"
    }
  ],
  "type": "FeatureCollection"
}
