{"type":"FeatureCollection","features":[{"type":"Feature","properties":{"name":"rocade_interior"},"geometry":{"type":"Polygon","coordinates":[[[-0.6732229675821182,44.83305978636977],[-0.6689553385619021,44.81298298521696],[-0.6683428136857854,44.811705992646786],[-0.6674701762010966,44.81063374635685],[-0.665810157358854,44.809346402693265],[-0.6525784464748622,44.8012807958303],[-0.6505610337357521,44.79937122256591],[-0.6450606831464268,44.7926458944035],[-0.6437478574969584,44.79165670447621],[-0.6412787401947624,44.790576356291155],[-0.6393412590562161,44.79015827269438],[-0.6369887936991522,44.79006610881285],[-0.61221197090876,44.79232340927525],[-0.6068925732029989,44.79226144028481],[-0.6037708350980249,44.79178793851235],[-0.600267045465443,44.79082734074961],[-0.5887985590659761,44.78623178599007],[-0.5816245970823644,44.78388153826251],[-0.5748653966357503,44.78225306989407],[-0.563591900637725,44.780205446735536],[-0.5611110787466576,44.77993520376597],[-0.5588500781979778,44.78007358066072],[-0.5476298396992768,44.78253926680822],[-0.5461511891995067,44.78341512858655],[-0.5453121379917553,44.78449133599159],[-0.5431562333200027,44.79331425435307],[-0.542058646508073,44.79607881548592],[-0.5409274105909303,44.79799301860456],[-0.5343176169458225,44.80610521201838],[-0.5258650227989108,44.81184981725063],[-0.5246324078742381,44.81293322704046],[-0.5238942177806347,44.81460637489028],[-0.5241388021669312,44.81689878239825],[-0.5239431941345446,44.81846987906777],[-0.5233988619961626,44.81975905455976],[-0.5226086449943457,44.82086921287358],[-0.5213969036606622,44.82200354961112],[-0.519942272474434,44.82291720352178],[-0.5161383830308381,44.82425822564441],[-0.5148431723073493,44.82488559763019],[-0.5118219904638637,44.82752643488092],[-0.5102682389699171,44.82854288123311],[-0.5052186021107435,44.83069986999692],[-0.5044528941236808,44.8315525392524],[-0.5033856955774492,44.83390714329283],[-0.5032857405142223,44.83566598980233],[-0.5043301214381445,44.837910720834145],[-0.5048501644608177,44.839897689059214],[-0.5049743194523437,44.84397089191976],[-0.5078800574537914,44.85131543423609],[-0.5084478796938083,44.85352661604739],[-0.5084666392907061,44.85588615060751],[-0.5071901145212999,44.862447703491554],[-0.5071659301891175,44.86454811792335],[-0.507506324323798,44.86706212360358],[-0.5088157102015135,44.870806863358816],[-0.5139218589855327,44.88026592906671],[-0.5146739459688509,44.882333265970914],[-0.5166325656065952,44.8822734743187],[-0.5181427913633393,44.88174940824808],[-0.5237903245520019,44.87803377254633],[-0.5258645094534635,44.87707556436408],[-0.5282930419055291,44.87651628125087],[-0.5307957305958398,44.87643123570463],[-0.5573661846698343,44.881410854535055],[-0.5675476896632202,44.88409295313431],[-0.5715535032738288,44.8848496458919],[-0.6129687673757122,44.88773994060982],[-0.6148314628337094,44.887637946821904],[-0.6161007874244949,44.8872606207254],[-0.6171471168949917,44.886676674418524],[-0.6179962444213464,44.88582501854312],[-0.6199290313273444,44.882098497125874],[-0.6220041819691027,44.88004499021037],[-0.6523841635174084,44.86242901410342],[-0.6557735278380514,44.859992329079944],[-0.6594935689370928,44.85627638452497],[-0.6716351543606303,44.839559572346126],[-0.6729745449172387,44.83686647919528],[-0.6733380962924043,44.83484928413861],[-0.6732229675821182,44.83305978636977]]]}}]}
