{"type":"FeatureCollection","features":[{"type":"Feature","properties":{"candidate_type":"shared_boundary","physical_sensor_id":"5842","sensor_ident":"Z10CT101","sensor_name":"Dandicolle vers Boulevards","sensor_type":"4G","temporal_status":"active_clean","n_raw_hours":10448,"n_clean_hours":10448,"current_zone_id":"162015000","current_commune":"BORDEAUX","current_zone_status":"interior","candidate_zone_id":"162014000","candidate_commune":"BORDEAUX","candidate_zone_status":"interior","distance_m":1.542,"distance_to_current_zone_boundary_m":1.542,"distance_to_shared_boundary_m":1.542,"shared_boundary_length_m":666.061,"n_candidate_zones_for_sensor":1,"is_ambiguous":false,"current_temporal_quality":"usable_with_gaps","current_has_raw_hourly_series":true,"current_is_observed_clean":true,"candidate_has_raw_hourly_series":false,"candidate_is_observed_clean":false,"candidate_is_lozo_target":false,"candidate_n_active_temporal_sensors":0,"potential_new_coverage":true},"geometry":{"type":"Point","coordinates":[-0.5944820999999999,44.829170300000015]}},{"type":"Feature","properties":{"candidate_type":"shared_boundary","physical_sensor_id":"5841","sensor_ident":"Z10CT102","sensor_name":"Dandicolle vers Mériadeck","sensor_type":"4G","temporal_status":"active_clean","n_raw_hours":10448,"n_clean_hours":10448,"current_zone_id":"162015000","current_commune":"BORDEAUX","current_zone_status":"interior","candidate_zone_id":"162014000","candidate_commune":"BORDEAUX","candidate_zone_status":"interior","distance_m":0.189,"distance_to_current_zone_boundary_m":0.189,"distance_to_shared_boundary_m":0.189,"shared_boundary_length_m":666.061,"n_candidate_zones_for_sensor":1,"is_ambiguous":false,"current_temporal_quality":"usable_with_gaps","current_has_raw_hourly_series":true,"current_is_observed_clean":true,"candidate_has_raw_hourly_series":false,"candidate_is_observed_clean":false,"candidate_is_lozo_target":false,"candidate_n_active_temporal_sensors":0,"potential_new_coverage":true},"geometry":{"type":"Point","coordinates":[-0.5944732000000011,44.8291599]}},{"type":"Feature","properties":{"candidate_type":"shared_boundary","physical_sensor_id":"2784","sensor_ident":"Z1701CT24","sensor_name":"21 Cours du Général De Gaulle vers Professeur Villemin","sensor_type":"BOUCLE","temporal_status":"active_clean","n_raw_hours":17392,"n_clean_hours":12232,"current_zone_id":"177002000","current_commune":"GRADIGNAN","current_zone_status":"boundary","candidate_zone_id":"177007000","candidate_commune":"GRADIGNAN","candidate_zone_status":"boundary","distance_m":1.19,"distance_to_current_zone_boundary_m":1.19,"distance_to_shared_boundary_m":1.19,"shared_boundary_length_m":230.044,"n_candidate_zones_for_sensor":1,"is_ambiguous":false,"current_temporal_quality":"partial","current_has_raw_hourly_series":true,"current_is_observed_clean":false,"candidate_has_raw_hourly_series":false,"candidate_is_observed_clean":false,"candidate_is_lozo_target":false,"candidate_n_active_temporal_sensors":0,"potential_new_coverage":true},"geometry":{"type":"Point","coordinates":[-0.6051048000000002,44.78654090000002]}},{"type":"Feature","properties":{"candidate_type":"shared_boundary","physical_sensor_id":"2447","sensor_ident":"Z203CT6","sensor_name":"Pont de Pierre vers Bir Hakeim","sensor_type":"BOUCLE","temporal_status":"active_clean","n_raw_hours":17379,"n_clean_hours":9553,"current_zone_id":"161014000","current_commune":"BORDEAUX","current_zone_status":"interior","candidate_zone_id":"161005000","candidate_commune":"BORDEAUX","candidate_zone_status":"interior","distance_m":1.642,"distance_to_current_zone_boundary_m":1.642,"distance_to_shared_boundary_m":1.642,"shared_boundary_length_m":383.079,"n_candidate_zones_for_sensor":1,"is_ambiguous":false,"current_temporal_quality":"partial","current_has_raw_hourly_series":true,"current_is_observed_clean":false,"candidate_has_raw_hourly_series":false,"candidate_is_observed_clean":false,"candidate_is_lozo_target":false,"candidate_n_active_temporal_sensors":0,"potential_new_coverage":true},"geometry":{"type":"Point","coordinates":[-0.5648168999999992,44.8372518]}},{"type":"Feature","properties":{"candidate_type":"shared_boundary","physical_sensor_id":"5941","sensor_ident":"Z21CT102","sensor_name":"Bordeaux vers Bruges","sensor_type":"4G","temporal_status":"active_clean","n_raw_hours":9106,"n_clean_hours":9106,"current_zone_id":"173009000","current_commune":"BOUSCAT (LE )","current_zone_status":"interior","candidate_zone_id":"173007000","candidate_commune":"BOUSCAT (LE )","candidate_zone_status":"interior","distance_m":9.587,"distance_to_current_zone_boundary_m":9.587,"distance_to_shared_boundary_m":9.587,"shared_boundary_length_m":788.647,"n_candidate_zones_for_sensor":1,"is_ambiguous":false,"current_temporal_quality":"usable_with_gaps","current_has_raw_hourly_series":true,"current_is_observed_clean":true,"candidate_has_raw_hourly_series":true,"candidate_is_observed_clean":true,"candidate_is_lozo_target":true,"candidate_n_active_temporal_sensors":1,"potential_new_coverage":false},"geometry":{"type":"Point","coordinates":[-0.5969478000000006,44.86828559999999]}},{"type":"Feature","properties":{"candidate_type":"shared_boundary","physical_sensor_id":"5942","sensor_ident":"Z21CT103","sensor_name":"Bruges vers Bordeaux","sensor_type":"4G","temporal_status":"active_clean","n_raw_hours":9107,"n_clean_hours":9107,"current_zone_id":"173007000","current_commune":"BOUSCAT (LE )","current_zone_status":"interior","candidate_zone_id":"173008000","candidate_commune":"BOUSCAT (LE )","candidate_zone_status":"interior","distance_m":0.055,"distance_to_current_zone_boundary_m":0.055,"distance_to_shared_boundary_m":0.055,"shared_boundary_length_m":1152.154,"n_candidate_zones_for_sensor":1,"is_ambiguous":false,"current_temporal_quality":"usable_with_gaps","current_has_raw_hourly_series":true,"current_is_observed_clean":true,"candidate_has_raw_hourly_series":false,"candidate_is_observed_clean":false,"candidate_is_lozo_target":false,"candidate_n_active_temporal_sensors":0,"potential_new_coverage":true},"geometry":{"type":"Point","coordinates":[-0.5972881999999997,44.8688148]}},{"type":"Feature","properties":{"candidate_type":"shared_boundary","physical_sensor_id":"2445","sensor_ident":"Z901CT5","sensor_name":"Boulevard G. Pompidou vers Barrière d'Ornano","sensor_type":"BOUCLE","temporal_status":"active_clean","n_raw_hours":17386,"n_clean_hours":12405,"current_zone_id":"172001000","current_commune":"BORDEAUX","current_zone_status":"interior","candidate_zone_id":"162015000","candidate_commune":"BORDEAUX","candidate_zone_status":"interior","distance_m":9.67,"distance_to_current_zone_boundary_m":9.67,"distance_to_shared_boundary_m":9.67,"shared_boundary_length_m":589.431,"n_candidate_zones_for_sensor":1,"is_ambiguous":false,"current_temporal_quality":"partial","current_has_raw_hourly_series":true,"current_is_observed_clean":false,"candidate_has_raw_hourly_series":true,"candidate_is_observed_clean":true,"candidate_is_lozo_target":true,"candidate_n_active_temporal_sensors":6,"potential_new_coverage":false},"geometry":{"type":"Point","coordinates":[-0.5988139000000001,44.8332259]}},{"type":"Feature","properties":{"candidate_type":"shared_boundary","physical_sensor_id":"2443","sensor_ident":"Z901CT6","sensor_name":"Boulevard Antoine Gautier vers rue Berruer","sensor_type":"BOUCLE","temporal_status":"active_clean","n_raw_hours":17386,"n_clean_hours":11510,"current_zone_id":"172001000","current_commune":"BORDEAUX","current_zone_status":"interior","candidate_zone_id":"162015000","candidate_commune":"BORDEAUX","candidate_zone_status":"interior","distance_m":2.206,"distance_to_current_zone_boundary_m":2.206,"distance_to_shared_boundary_m":2.206,"shared_boundary_length_m":589.431,"n_candidate_zones_for_sensor":1,"is_ambiguous":false,"current_temporal_quality":"partial","current_has_raw_hourly_series":true,"current_is_observed_clean":false,"candidate_has_raw_hourly_series":true,"candidate_is_observed_clean":true,"candidate_is_lozo_target":true,"candidate_n_active_temporal_sensors":6,"potential_new_coverage":false},"geometry":{"type":"Point","coordinates":[-0.5986869999999999,44.83281780000001]}},{"type":"Feature","properties":{"candidate_type":"shared_boundary","physical_sensor_id":"2441","sensor_ident":"Z901CT7","sensor_name":"Boulevard Antoine Gautier vers Cité des Pêcheurs","sensor_type":"BOUCLE","temporal_status":"active_clean","n_raw_hours":17386,"n_clean_hours":12114,"current_zone_id":"162015000","current_commune":"BORDEAUX","current_zone_status":"interior","candidate_zone_id":"172001000","candidate_commune":"BORDEAUX","candidate_zone_status":"interior","distance_m":8.635,"distance_to_current_zone_boundary_m":8.635,"distance_to_shared_boundary_m":8.635,"shared_boundary_length_m":589.431,"n_candidate_zones_for_sensor":1,"is_ambiguous":false,"current_temporal_quality":"usable_with_gaps","current_has_raw_hourly_series":true,"current_is_observed_clean":true,"candidate_has_raw_hourly_series":true,"candidate_is_observed_clean":false,"candidate_is_lozo_target":false,"candidate_n_active_temporal_sensors":2,"potential_new_coverage":true},"geometry":{"type":"Point","coordinates":[-0.5986438999999998,44.83400879999999]}},{"type":"Feature","properties":{"candidate_type":"shared_boundary","physical_sensor_id":"2436","sensor_ident":"Z904CT4","sensor_name":"155 Avenue François Mitterrand vers rue Camille Vic","sensor_type":"BOUCLE","temporal_status":"active_clean","n_raw_hours":17386,"n_clean_hours":17300,"current_zone_id":"170005000","current_commune":"MERIGNAC","current_zone_status":"interior","candidate_zone_id":"170004000","candidate_commune":"MERIGNAC","candidate_zone_status":"interior","distance_m":4.659,"distance_to_current_zone_boundary_m":4.659,"distance_to_shared_boundary_m":4.659,"shared_boundary_length_m":1460.692,"n_candidate_zones_for_sensor":1,"is_ambiguous":false,"current_temporal_quality":"usable_with_gaps","current_has_raw_hourly_series":true,"current_is_observed_clean":true,"candidate_has_raw_hourly_series":false,"candidate_is_observed_clean":false,"candidate_is_lozo_target":false,"candidate_n_active_temporal_sensors":0,"potential_new_coverage":true},"geometry":{"type":"Point","coordinates":[-0.6281969999999999,44.82571890000003]}},{"type":"Feature","properties":{"candidate_type":"shared_boundary","physical_sensor_id":"2437","sensor_ident":"Z904CT5","sensor_name":"155 Avenue François Mitterrand vers Mendès France","sensor_type":"BOUCLE","temporal_status":"active_clean","n_raw_hours":17388,"n_clean_hours":17211,"current_zone_id":"170005000","current_commune":"MERIGNAC","current_zone_status":"interior","candidate_zone_id":"170004000","candidate_commune":"MERIGNAC","candidate_zone_status":"interior","distance_m":9.133,"distance_to_current_zone_boundary_m":9.133,"distance_to_shared_boundary_m":9.133,"shared_boundary_length_m":1460.692,"n_candidate_zones_for_sensor":1,"is_ambiguous":false,"current_temporal_quality":"usable_with_gaps","current_has_raw_hourly_series":true,"current_is_observed_clean":true,"candidate_has_raw_hourly_series":false,"candidate_is_observed_clean":false,"candidate_is_lozo_target":false,"candidate_n_active_temporal_sensors":0,"potential_new_coverage":true},"geometry":{"type":"Point","coordinates":[-0.6282210000000001,44.82580779999999]}}]}
